[{"OBJECT_NAME":"STARLINK-30789","OBJECT_ID":"2023-166S","EPOCH":"2026-03-09T15:40:43.799808","MEAN_MOTION":15.30179862,"ECCENTRICITY":0.00015567,"INCLINATION":53.1596,"RA_OF_ASC_NODE":219.7891,"ARG_OF_PERICENTER":88.6419,"MEAN_ANOMALY":271.476,"EPHEMERIS_TYPE":0,"CLASSIFICATION_TYPE":"U","NORAD_CAT_ID":58166,"ELEMENT_SET_NO":999,"REV_AT_EPOCH":13317,"BSTAR":-4.5699263e-5,"MEAN_MOTION_DOT":-1.712e-5,"MEAN_MOTION_DDOT":0},{"OBJECT_NAME":"SL-3 R\/B","OBJECT_ID":"1981-065B","EPOCH":"2026-03-09T21:58:16.284000","MEAN_MOTION":15.33300883,"ECCENTRICITY":0.00117648,"INCLINATION":97.6337,"RA_OF_ASC_NODE":111.1786,"ARG_OF_PERICENTER":10.529,"MEAN_ANOMALY":349.6196,"EPHEMERIS_TYPE":0,"CLASSIFICATION_TYPE":"U","NORAD_CAT_ID":12586,"ELEMENT_SET_NO":999,"REV_AT_EPOCH":43499,"BSTAR":0.00030084921,"MEAN_MOTION_DOT":9.62e-5,"MEAN_MOTION_DDOT":0}]
